ONEWEB-0512             
1 54130U 22138T   24244.09959441  .00000173  00000+0  39878-3 0  9994
2 54130  87.9095  75.2981 0001217  88.4057 271.7215 13.19727615 91274
ONEWEB-0513             
1 54131U 22138U   24243.91873416  .00000092  00000+0  19661-3 0  9990
2 54131  87.9088  75.3269 0001175  79.4841 280.6424 13.19725403 90263
ONEWEB-0514             
1 54132U 22138V   24244.26702393  .00000043  00000+0  75819-4 0  9999
2 54132  87.9085  75.2500 0001787  85.9002 274.2335 13.19726938 91319
ONEWEB-0515             
1 54133U 22138W   24243.89839046  .00000077  00000+0  15724-3 0  9999
2 54133  87.9206  44.7547 0002694 103.3019 256.8414 13.20769738 92804
ONEWEB-0516             
1 54134U 22138X   24244.09014892  .00000098  00000+0  21186-3 0  9999
2 54134  87.9095  75.3014 0001718  90.5085 269.6245 13.19729172 91298
ONEWEB-0517             
1 54135U 22138Y   24243.76632984 -.00000803  00000+0 -20396-2 0  9998
2 54135  87.9088  75.3463 0001764  73.1935 286.9391 13.19720161 90383
ONEWEB-0518             
1 54136U 22138Z   24243.93690665  .00000095  00000+0  20461-3 0  9993
2 54136  87.9093  75.3295 0001679  84.0899 276.0425 13.19727326 90409
ONEWEB-0519             
1 54137U 22138AA  24244.26543919  .00000158  00000+0  36281-3 0  9997
2 54137  87.9083  75.2412 0001379  80.1859 279.9429 13.19727841 91329
